[{"CCSDS_OMM_VERS":"3.0","COMMENT":"GENERATED VIA SPACE-TRACK.ORG API","CREATION_DATE":"2026-05-16T17:43:08","ORIGINATOR":"18 SPCS","OBJECT_NAME":"TITAN 3C TRANSTAGE DEB","OBJECT_ID":"1965-082KX","CENTER_NAME":"EARTH","REF_FRAME":"TEME","TIME_SYSTEM":"UTC","MEAN_ELEMENT_THEORY":"SGP4","EPOCH":"2026-05-16T10:05:40.898400","MEAN_MOTION":"14.74098492","ECCENTRICITY":"0.00331976","INCLINATION":"32.0544","RA_OF_ASC_NODE":"175.3418","ARG_OF_PERICENTER":"345.7942","MEAN_ANOMALY":"40.8019","EPHEMERIS_TYPE":"0","CLASSIFICATION_TYPE":"U","NORAD_CAT_ID":"2799","ELEMENT_SET_NO":"999","REV_AT_EPOCH":"15146","BSTAR":"0.00009672228600","MEAN_MOTION_DOT":"0.00000698","MEAN_MOTION_DDOT":"0.0000000000000","SEMIMAJOR_AXIS":"7026.151","PERIOD":"97.687","APOAPSIS":"671.342","PERIAPSIS":"624.691","OBJECT_TYPE":"DEBRIS","RCS_SIZE":"SMALL","COUNTRY_CODE":"US","LAUNCH_DATE":"1965-10-15","SITE":"AFETR","DECAY_DATE":null,"FILE":"5196581","GP_ID":"323457383","TLE_LINE0":"0 TITAN 3C TRANSTAGE DEB","TLE_LINE1":"1 02799U 65082KX  26136.42061225  .00000698  00000-0  96722-4 0  9991","TLE_LINE2":"2 02799  32.0544 175.3418 0033198 345.7942  40.8019 14.74098492151461"},{"CCSDS_OMM_VERS":"3.0","COMMENT":"GENERATED VIA SPACE-TRACK.ORG API","CREATION_DATE":"2026-05-16T10:38:26","ORIGINATOR":"18 SPCS","OBJECT_NAME":"SCOUT B DEB","OBJECT_ID":"1966-070D","CENTER_NAME":"EARTH","REF_FRAME":"TEME","TIME_SYSTEM":"UTC","MEAN_ELEMENT_THEORY":"SGP4","EPOCH":"2026-05-15T08:22:40.473120","MEAN_MOTION":"12.43330604","ECCENTRICITY":"0.13870845","INCLINATION":"81.4009","RA_OF_ASC_NODE":"269.1661","ARG_OF_PERICENTER":"122.3106","MEAN_ANOMALY":"251.9979","EPHEMERIS_TYPE":"0","CLASSIFICATION_TYPE":"U","NORAD_CAT_ID":"2800","ELEMENT_SET_NO":"999","REV_AT_EPOCH":"58069","BSTAR":"0.00070802640000","MEAN_MOTION_DOT":"0.00005610","MEAN_MOTION_DDOT":"0.0000000000000","SEMIMAJOR_AXIS":"7870.653","PERIOD":"115.818","APOAPSIS":"2584.244","PERIAPSIS":"400.792","OBJECT_TYPE":"DEBRIS","RCS_SIZE":"SMALL","COUNTRY_CODE":"US","LAUNCH_DATE":"1966-08-04","SITE":"AFWTR","DECAY_DATE":null,"FILE":"5196540","GP_ID":"323423684","TLE_LINE0":"0 SCOUT B DEB","TLE_LINE1":"1 02800U 66070D   26135.34907955  .00005610  00000-0  70803-3 0  9991","TLE_LINE2":"2 02800  81.4009 269.1661 1387085 122.3106 251.9979 12.43330604580698"},{"CCSDS_OMM_VERS":"3.0","COMMENT":"GENERATED VIA SPACE-TRACK.ORG API","CREATION_DATE":"2026-05-16T19:46:19","ORIGINATOR":"18 SPCS","OBJECT_NAME":"COSMOS 158","OBJECT_ID":"1967-045A","CENTER_NAME":"EARTH","REF_FRAME":"TEME","TIME_SYSTEM":"UTC","MEAN_ELEMENT_THEORY":"SGP4","EPOCH":"2026-05-16T10:30:25.994304","MEAN_MOTION":"14.36938261","ECCENTRICITY":"0.00574150","INCLINATION":"74.0381","RA_OF_ASC_NODE":"123.4341","ARG_OF_PERICENTER":"337.8771","MEAN_ANOMALY":"21.9905","EPHEMERIS_TYPE":"0","CLASSIFICATION_TYPE":"U","NORAD_CAT_ID":"2801","ELEMENT_SET_NO":"999","REV_AT_EPOCH":"9186","BSTAR":"0.00000963470000","MEAN_MOTION_DOT":"0.00000002","MEAN_MOTION_DDOT":"0.0000000000000","SEMIMAJOR_AXIS":"7146.769","PERIOD":"100.213","APOAPSIS":"809.668","PERIAPSIS":"727.601","OBJECT_TYPE":"PAYLOAD","RCS_SIZE":"LARGE","COUNTRY_CODE":"CIS","LAUNCH_DATE":"1967-05-15","SITE":"PKMTR","DECAY_DATE":null,"FILE":"5196692","GP_ID":"323493247","TLE_LINE0":"0 COSMOS 158","TLE_LINE1":"1  2801U 67045A   26136.43780086  .00000002  00000-0  96347-5 0  9993","TLE_LINE2":"2  2801  74.0381 123.4341 0057415 337.8771  21.9905 14.36938261 91865"},{"CCSDS_OMM_VERS":"3.0","COMMENT":"GENERATED VIA SPACE-TRACK.ORG API","CREATION_DATE":"2026-05-16T19:46:19","ORIGINATOR":"18 SPCS","OBJECT_NAME":"SL-8 R\/B","OBJECT_ID":"1967-045B","CENTER_NAME":"EARTH","REF_FRAME":"TEME","TIME_SYSTEM":"UTC","MEAN_ELEMENT_THEORY":"SGP4","EPOCH":"2026-05-16T12:43:59.450880","MEAN_MOTION":"14.45666474","ECCENTRICITY":"0.00647370","INCLINATION":"74.0113","RA_OF_ASC_NODE":"221.3822","ARG_OF_PERICENTER":"213.2985","MEAN_ANOMALY":"146.4093","EPHEMERIS_TYPE":"0","CLASSIFICATION_TYPE":"U","NORAD_CAT_ID":"2802","ELEMENT_SET_NO":"999","REV_AT_EPOCH":"9882","BSTAR":"0.00005326200000","MEAN_MOTION_DOT":"0.00000165","MEAN_MOTION_DDOT":"0.0000000000000","SEMIMAJOR_AXIS":"7117.975","PERIOD":"99.608","APOAPSIS":"785.919","PERIAPSIS":"693.760","OBJECT_TYPE":"ROCKET BODY","RCS_SIZE":"LARGE","COUNTRY_CODE":"CIS","LAUNCH_DATE":"1967-05-15","SITE":"PKMTR","DECAY_DATE":null,"FILE":"5196692","GP_ID":"323493747","TLE_LINE0":"0 SL-8 R\/B","TLE_LINE1":"1  2802U 67045B   26136.53054920  .00000165  00000-0  53262-4 0  9994","TLE_LINE2":"2  2802  74.0113 221.3822 0064737 213.2985 146.4093 14.45666474 98828"},{"CCSDS_OMM_VERS":"3.0","COMMENT":"GENERATED VIA SPACE-TRACK.ORG API","CREATION_DATE":"2026-05-16T19:46:19","ORIGINATOR":"18 SPCS","OBJECT_NAME":"OPS 7218 (TRANSIT 16)","OBJECT_ID":"1967-048A","CENTER_NAME":"EARTH","REF_FRAME":"TEME","TIME_SYSTEM":"UTC","MEAN_ELEMENT_THEORY":"SGP4","EPOCH":"2026-05-16T13:35:05.678016","MEAN_MOTION":"13.50759822","ECCENTRICITY":"0.00213500","INCLINATION":"89.6733","RA_OF_ASC_NODE":"348.9517","ARG_OF_PERICENTER":"33.0251","MEAN_ANOMALY":"355.4046","EPHEMERIS_TYPE":"0","CLASSIFICATION_TYPE":"U","NORAD_CAT_ID":"2807","ELEMENT_SET_NO":"999","REV_AT_EPOCH":"90366","BSTAR":"0.00015057000000","MEAN_MOTION_DOT":"0.00000107","MEAN_MOTION_DDOT":"0.0000000000000","SEMIMAJOR_AXIS":"7447.601","PERIOD":"106.607","APOAPSIS":"1085.367","PERIAPSIS":"1053.566","OBJECT_TYPE":"PAYLOAD","RCS_SIZE":"LARGE","COUNTRY_CODE":"US","LAUNCH_DATE":"1967-05-18","SITE":"AFWTR","DECAY_DATE":null,"FILE":"5196692","GP_ID":"323493248","TLE_LINE0":"0 OPS 7218 (TRANSIT 16)","TLE_LINE1":"1  2807U 67048A   26136.56603794  .00000107  00000-0  15057-3 0  9999","TLE_LINE2":"2  2807  89.6733 348.9517 0021350  33.0251 355.4046 13.50759822903660"},{"CCSDS_OMM_VERS":"3.0","COMMENT":"GENERATED VIA SPACE-TRACK.ORG API","CREATION_DATE":"2026-05-16T19:46:19","ORIGINATOR":"18 SPCS","OBJECT_NAME":"SCOUT A R\/B","OBJECT_ID":"1967-048B","CENTER_NAME":"EARTH","REF_FRAME":"TEME","TIME_SYSTEM":"UTC","MEAN_ELEMENT_THEORY":"SGP4","EPOCH":"2026-05-16T13:33:40.559328","MEAN_MOTION":"13.49328231","ECCENTRICITY":"0.00215160","INCLINATION":"89.6779","RA_OF_ASC_NODE":"351.9399","ARG_OF_PERICENTER":"90.2601","MEAN_ANOMALY":"298.6150","EPHEMERIS_TYPE":"0","CLASSIFICATION_TYPE":"U","NORAD_CAT_ID":"2811","ELEMENT_SET_NO":"999","REV_AT_EPOCH":"90224","BSTAR":"0.00011269000000","MEAN_MOTION_DOT":"0.00000081","MEAN_MOTION_DDOT":"0.0000000000000","SEMIMAJOR_AXIS":"7452.868","PERIOD":"106.720","APOAPSIS":"1090.769","PERIAPSIS":"1058.698","OBJECT_TYPE":"ROCKET BODY","RCS_SIZE":"MEDIUM","COUNTRY_CODE":"US","LAUNCH_DATE":"1967-05-18","SITE":"AFWTR","DECAY_DATE":null,"FILE":"5196693","GP_ID":"323493759","TLE_LINE0":"0 SCOUT A R\/B","TLE_LINE1":"1  2811U 67048B   26136.56505277  .00000081  00000-0  11269-3 0  9993","TLE_LINE2":"2  2811  89.6779 351.9399 0021516  90.2601 298.6150 13.49328231902246"},{"CCSDS_OMM_VERS":"3.0","COMMENT":"GENERATED VIA SPACE-TRACK.ORG API","CREATION_DATE":"2026-05-16T10:38:26","ORIGINATOR":"18 SPCS","OBJECT_NAME":"THOR AGENA D R\/B","OBJECT_ID":"1967-053B","CENTER_NAME":"EARTH","REF_FRAME":"TEME","TIME_SYSTEM":"UTC","MEAN_ELEMENT_THEORY":"SGP4","EPOCH":"2026-05-16T07:22:33.702528","MEAN_MOTION":"13.97723578","ECCENTRICITY":"0.00090681","INCLINATION":"69.9694","RA_OF_ASC_NODE":"141.9867","ARG_OF_PERICENTER":"228.5057","MEAN_ANOMALY":"131.5272","EPHEMERIS_TYPE":"0","CLASSIFICATION_TYPE":"U","NORAD_CAT_ID":"2825","ELEMENT_SET_NO":"999","REV_AT_EPOCH":"8764","BSTAR":"0.00006648831600","MEAN_MOTION_DOT":"0.00000040","MEAN_MOTION_DDOT":"0.0000000000000","SEMIMAJOR_AXIS":"7279.826","PERIOD":"103.025","APOAPSIS":"908.292","PERIAPSIS":"895.089","OBJECT_TYPE":"ROCKET BODY","RCS_SIZE":"LARGE","COUNTRY_CODE":"US","LAUNCH_DATE":"1967-05-31","SITE":"AFWTR","DECAY_DATE":null,"FILE":"5196540","GP_ID":"323424186","TLE_LINE0":"0 THOR AGENA D R\/B","TLE_LINE1":"1 02825U 67053B   26136.30733452  .00000040  00000-0  66488-4 0  9993","TLE_LINE2":"2 02825  69.9694 141.9867 0009068 228.5057 131.5272 13.97723578 87648"},{"CCSDS_OMM_VERS":"3.0","COMMENT":"GENERATED VIA SPACE-TRACK.ORG API","CREATION_DATE":"2026-05-16T17:43:08","ORIGINATOR":"18 SPCS","OBJECT_NAME":"OPS 5712 (P\/L 160)","OBJECT_ID":"1967-053A","CENTER_NAME":"EARTH","REF_FRAME":"TEME","TIME_SYSTEM":"UTC","MEAN_ELEMENT_THEORY":"SGP4","EPOCH":"2026-05-16T08:44:12.312096","MEAN_MOTION":"14.77231978","ECCENTRICITY":"0.00016474","INCLINATION":"69.9151","RA_OF_ASC_NODE":"116.2652","ARG_OF_PERICENTER":"256.0307","MEAN_ANOMALY":"104.0658","EPHEMERIS_TYPE":"0","CLASSIFICATION_TYPE":"U","NORAD_CAT_ID":"2826","ELEMENT_SET_NO":"999","REV_AT_EPOCH":"6153","BSTAR":"0.00085127693000","MEAN_MOTION_DOT":"0.00005970","MEAN_MOTION_DDOT":"0.0000000000000","SEMIMAJOR_AXIS":"7016.212","PERIOD":"97.480","APOAPSIS":"639.233","PERIAPSIS":"636.921","OBJECT_TYPE":"PAYLOAD","RCS_SIZE":"MEDIUM","COUNTRY_CODE":"US","LAUNCH_DATE":"1967-05-31","SITE":"AFWTR","DECAY_DATE":null,"FILE":"5196581","GP_ID":"323457887","TLE_LINE0":"0 OPS 5712 (P\/L 160)","TLE_LINE1":"1 02826U 67053A   26136.36403139  .00005970  00000-0  85128-3 0  9994","TLE_LINE2":"2 02826  69.9151 116.2652 0001647 256.0307 104.0658 14.77231978 61533"}]